COSMOS 2251 DEB         
1 34009U 93036GU  26066.36751428  .00000558  00000+0  21131-3 0  9991
2 34009  74.0377 182.2749 0028443 235.1172 180.8886 14.33301935891583
COSMOS 2251 DEB         
1 34010U 93036GV  26066.54332635  .00273677  00000+0  61224-2 0  9998
2 34010  73.9875 102.7685 0014888 282.6698  77.2846 15.42245130905812
COSMOS 2251 DEB         
1 34011U 93036GW  26066.32655950  .00004164  00000+0  12572-2 0  9998
2 34011  74.0153 173.1206 0038600 240.9642 118.7645 14.42321636891355
COSMOS 2251 DEB         
1 34014U 93036GZ  26066.57973898  .00007792  00000+0  11650-2 0  9998
2 34014  74.0147 115.0629 0040177 237.6312 245.1568 14.74328127905536
COSMOS 2251 DEB         
1 34015U 93036HA  26066.22150352  .00005577  00000+0  11419-2 0  9995
2 34015  74.0266 357.9399 0018129  74.1280  39.0494 14.60903335897645
COSMOS 2251 DEB         
1 34018U 93036HD  26066.13464588  .00000580  00000+0  43802-3 0  9998
2 34018  73.8784 309.0620 0264639 329.1267 184.4363 13.81203858858228
COSMOS 2251 DEB         
1 34019U 93036HE  26066.60341135  .00002660  00000+0  93568-3 0  9998
2 34019  73.9511 254.6183 0060546  55.6136  13.5207 14.34342576887371
COSMOS 2251 DEB         
1 34021U 93036HG  26065.46345825  .00001969  00000+0  51116-3 0  9998
2 34021  74.0378 332.5838 0018828  97.5458  76.3586 14.50276178898436
COSMOS 2251 DEB         
1 34022U 93036HH  26066.55844056  .00000706  00000+0  23622-3 0  9999
2 34022  74.0526 114.4953 0021764 165.9434 356.7904 14.39104112894153
COSMOS 2251 DEB         
1 34023U 93036HJ  26066.53961640  .00001067  00000+0  34103-3 0  9994
2 34023  74.0227  94.7845 0018393 180.5347 301.9424 14.40767153894355
COSMOS 2251 DEB         
1 34024U 93036HK  26066.63552941  .00000651  00000+0  23460-3 0  9998
2 34024  74.0472 160.3822 0021511 197.8817 279.0921 14.35505096892425
COSMOS 2251 DEB         
1 34026U 93036HM  26066.37859142  .00000975  00000+0  80798-3 0  9990
2 34026  73.7660 196.5309 0347783  52.9587 338.1683 13.65487951846871
COSMOS 2251 DEB         
1 34028U 93036HP  26066.66088892  .00000236  00000+0  29021-3 0  9992
2 34028  73.8812 217.0395 0545718 340.4594  33.0506 13.20718138821297
COSMOS 2251 DEB         
1 34031U 93036HS  26066.19464716  .00005656  00000+0  11616-2 0  9998
2 34031  74.0152 334.2678 0020750  75.0224  76.4005 14.60735157897981
COSMOS 2251 DEB         
1 34035U 93036HW  26066.53426225  .00009323  00000+0  22301-2 0  9991
2 34035  74.0647 189.5165 0041128 175.5808 311.1771 14.53167758891972
COSMOS 2251 DEB         
1 34036U 93036HX  26066.50198603  .00081025  00000+0  58207-2 0  9998
2 34036  74.0176 337.0513 0004907 335.7021  24.3935 15.03843810898404
