[{"OBJECT_NAME":"COSMOS 2251 DEB","OBJECT_ID":"1993-036GU","EPOCH":"2026-03-07T08:49:13.233792","MEAN_MOTION":14.33301935,"ECCENTRICITY":0.00284434,"INCLINATION":74.0377,"RA_OF_ASC_NODE":182.2749,"ARG_OF_PERICENTER":235.1172,"MEAN_ANOMALY":180.8886,"EPHEMERIS_TYPE":0,"CLASSIFICATION_TYPE":"U","NORAD_CAT_ID":34009,"ELEMENT_SET_NO":999,"REV_AT_EPOCH":89158,"BSTAR":0.00021130658,"MEAN_MOTION_DOT":5.58e-6,"MEAN_MOTION_DDOT":0},{"OBJECT_NAME":"COSMOS 2251 DEB","OBJECT_ID":"1993-036GV","EPOCH":"2026-03-07T13:02:23.396640","MEAN_MOTION":15.4224513,"ECCENTRICITY":0.00148885,"INCLINATION":73.9875,"RA_OF_ASC_NODE":102.7685,"ARG_OF_PERICENTER":282.6698,"MEAN_ANOMALY":77.2846,"EPHEMERIS_TYPE":0,"CLASSIFICATION_TYPE":"U","NORAD_CAT_ID":34010,"ELEMENT_SET_NO":999,"REV_AT_EPOCH":90581,"BSTAR":0.0061224184,"MEAN_MOTION_DOT":0.00273677,"MEAN_MOTION_DDOT":0},{"OBJECT_NAME":"COSMOS 2251 DEB","OBJECT_ID":"1993-036GW","EPOCH":"2026-03-07T07:50:14.740800","MEAN_MOTION":14.42321636,"ECCENTRICITY":0.00386,"INCLINATION":74.0153,"RA_OF_ASC_NODE":173.1206,"ARG_OF_PERICENTER":240.9642,"MEAN_ANOMALY":118.7645,"EPHEMERIS_TYPE":0,"CLASSIFICATION_TYPE":"U","NORAD_CAT_ID":34011,"ELEMENT_SET_NO":999,"REV_AT_EPOCH":89135,"BSTAR":0.0012572,"MEAN_MOTION_DOT":4.164e-5,"MEAN_MOTION_DDOT":0},{"OBJECT_NAME":"COSMOS 2251 DEB","OBJECT_ID":"1993-036GZ","EPOCH":"2026-03-07T13:54:49.447872","MEAN_MOTION":14.74328127,"ECCENTRICITY":0.0040177,"INCLINATION":74.0147,"RA_OF_ASC_NODE":115.0629,"ARG_OF_PERICENTER":237.6312,"MEAN_ANOMALY":245.1568,"EPHEMERIS_TYPE":0,"CLASSIFICATION_TYPE":"U","NORAD_CAT_ID":34014,"ELEMENT_SET_NO":999,"REV_AT_EPOCH":90553,"BSTAR":0.0011650455,"MEAN_MOTION_DOT":7.792e-5,"MEAN_MOTION_DDOT":0},{"OBJECT_NAME":"COSMOS 2251 DEB","OBJECT_ID":"1993-036HA","EPOCH":"2026-03-07T05:18:57.904128","MEAN_MOTION":14.60903335,"ECCENTRICITY":0.0018129,"INCLINATION":74.0266,"RA_OF_ASC_NODE":357.9399,"ARG_OF_PERICENTER":74.128,"MEAN_ANOMALY":39.0494,"EPHEMERIS_TYPE":0,"CLASSIFICATION_TYPE":"U","NORAD_CAT_ID":34015,"ELEMENT_SET_NO":999,"REV_AT_EPOCH":89764,"BSTAR":0.0011419,"MEAN_MOTION_DOT":5.577e-5,"MEAN_MOTION_DDOT":0},{"OBJECT_NAME":"COSMOS 2251 DEB","OBJECT_ID":"1993-036HD","EPOCH":"2026-03-07T03:13:53.404032","MEAN_MOTION":13.81203858,"ECCENTRICITY":0.02646399,"INCLINATION":73.8784,"RA_OF_ASC_NODE":309.062,"ARG_OF_PERICENTER":329.1267,"MEAN_ANOMALY":184.4363,"EPHEMERIS_TYPE":0,"CLASSIFICATION_TYPE":"U","NORAD_CAT_ID":34018,"ELEMENT_SET_NO":999,"REV_AT_EPOCH":85822,"BSTAR":0.00043802302,"MEAN_MOTION_DOT":5.8e-6,"MEAN_MOTION_DDOT":0},{"OBJECT_NAME":"COSMOS 2251 DEB","OBJECT_ID":"1993-036HE","EPOCH":"2026-03-07T14:28:54.740640","MEAN_MOTION":14.34342576,"ECCENTRICITY":0.00605469,"INCLINATION":73.9511,"RA_OF_ASC_NODE":254.6183,"ARG_OF_PERICENTER":55.6136,"MEAN_ANOMALY":13.5207,"EPHEMERIS_TYPE":0,"CLASSIFICATION_TYPE":"U","NORAD_CAT_ID":34019,"ELEMENT_SET_NO":999,"REV_AT_EPOCH":88737,"BSTAR":0.00093568359,"MEAN_MOTION_DOT":2.66e-5,"MEAN_MOTION_DDOT":0},{"OBJECT_NAME":"COSMOS 2251 DEB","OBJECT_ID":"1993-036HG","EPOCH":"2026-03-06T11:07:22.792800","MEAN_MOTION":14.50276178,"ECCENTRICITY":0.00188287,"INCLINATION":74.0378,"RA_OF_ASC_NODE":332.5838,"ARG_OF_PERICENTER":97.5458,"MEAN_ANOMALY":76.3586,"EPHEMERIS_TYPE":0,"CLASSIFICATION_TYPE":"U","NORAD_CAT_ID":34021,"ELEMENT_SET_NO":999,"REV_AT_EPOCH":89843,"BSTAR":0.00051116071,"MEAN_MOTION_DOT":1.969e-5,"MEAN_MOTION_DDOT":0},{"OBJECT_NAME":"COSMOS 2251 DEB","OBJECT_ID":"1993-036HH","EPOCH":"2026-03-07T13:24:09.264384","MEAN_MOTION":14.39104112,"ECCENTRICITY":0.00217643,"INCLINATION":74.0526,"RA_OF_ASC_NODE":114.4953,"ARG_OF_PERICENTER":165.9434,"MEAN_ANOMALY":356.7904,"EPHEMERIS_TYPE":0,"CLASSIFICATION_TYPE":"U","NORAD_CAT_ID":34022,"ELEMENT_SET_NO":999,"REV_AT_EPOCH":89415,"BSTAR":0.00023622308,"MEAN_MOTION_DOT":7.06e-6,"MEAN_MOTION_DDOT":0},{"OBJECT_NAME":"COSMOS 2251 DEB","OBJECT_ID":"1993-036HJ","EPOCH":"2026-03-07T12:57:02.856960","MEAN_MOTION":14.40767153,"ECCENTRICITY":0.00183933,"INCLINATION":74.0227,"RA_OF_ASC_NODE":94.7845,"ARG_OF_PERICENTER":180.5347,"MEAN_ANOMALY":301.9424,"EPHEMERIS_TYPE":0,"CLASSIFICATION_TYPE":"U","NORAD_CAT_ID":34023,"ELEMENT_SET_NO":999,"REV_AT_EPOCH":89435,"BSTAR":0.00034103128,"MEAN_MOTION_DOT":1.067e-5,"MEAN_MOTION_DDOT":0},{"OBJECT_NAME":"COSMOS 2251 DEB","OBJECT_ID":"1993-036HK","EPOCH":"2026-03-07T15:15:09.741024","MEAN_MOTION":14.35505096,"ECCENTRICITY":0.00215111,"INCLINATION":74.0472,"RA_OF_ASC_NODE":160.3822,"ARG_OF_PERICENTER":197.8817,"MEAN_ANOMALY":279.0921,"EPHEMERIS_TYPE":0,"CLASSIFICATION_TYPE":"U","NORAD_CAT_ID":34024,"ELEMENT_SET_NO":999,"REV_AT_EPOCH":89242,"BSTAR":0.00023460487,"MEAN_MOTION_DOT":6.51e-6,"MEAN_MOTION_DDOT":0},{"OBJECT_NAME":"COSMOS 2251 DEB","OBJECT_ID":"1993-036HM","EPOCH":"2026-03-07T09:05:10.298688","MEAN_MOTION":13.65487951,"ECCENTRICITY":0.03477834,"INCLINATION":73.766,"RA_OF_ASC_NODE":196.5309,"ARG_OF_PERICENTER":52.9587,"MEAN_ANOMALY":338.1683,"EPHEMERIS_TYPE":0,"CLASSIFICATION_TYPE":"U","NORAD_CAT_ID":34026,"ELEMENT_SET_NO":999,"REV_AT_EPOCH":84687,"BSTAR":0.00080798092,"MEAN_MOTION_DOT":9.75e-6,"MEAN_MOTION_DDOT":0},{"OBJECT_NAME":"COSMOS 2251 DEB","OBJECT_ID":"1993-036HP","EPOCH":"2026-03-07T15:51:40.802688","MEAN_MOTION":13.20718138,"ECCENTRICITY":0.05457182,"INCLINATION":73.8812,"RA_OF_ASC_NODE":217.0395,"ARG_OF_PERICENTER":340.4594,"MEAN_ANOMALY":33.0506,"EPHEMERIS_TYPE":0,"CLASSIFICATION_TYPE":"U","NORAD_CAT_ID":34028,"ELEMENT_SET_NO":999,"REV_AT_EPOCH":82129,"BSTAR":0.00029020899,"MEAN_MOTION_DOT":2.36e-6,"MEAN_MOTION_DDOT":0},{"OBJECT_NAME":"COSMOS 2251 DEB","OBJECT_ID":"1993-036HS","EPOCH":"2026-03-07T04:40:17.514624","MEAN_MOTION":14.60735157,"ECCENTRICITY":0.00207503,"INCLINATION":74.0152,"RA_OF_ASC_NODE":334.2678,"ARG_OF_PERICENTER":75.0224,"MEAN_ANOMALY":76.4005,"EPHEMERIS_TYPE":0,"CLASSIFICATION_TYPE":"U","NORAD_CAT_ID":34031,"ELEMENT_SET_NO":999,"REV_AT_EPOCH":89798,"BSTAR":0.0011615512,"MEAN_MOTION_DOT":5.656e-5,"MEAN_MOTION_DDOT":0},{"OBJECT_NAME":"COSMOS 2251 DEB","OBJECT_ID":"1993-036HW","EPOCH":"2026-03-07T12:49:20.258400","MEAN_MOTION":14.53167758,"ECCENTRICITY":0.00411287,"INCLINATION":74.0647,"RA_OF_ASC_NODE":189.5165,"ARG_OF_PERICENTER":175.5808,"MEAN_ANOMALY":311.1771,"EPHEMERIS_TYPE":0,"CLASSIFICATION_TYPE":"U","NORAD_CAT_ID":34035,"ELEMENT_SET_NO":999,"REV_AT_EPOCH":89197,"BSTAR":0.0022300636,"MEAN_MOTION_DOT":9.323e-5,"MEAN_MOTION_DDOT":0},{"OBJECT_NAME":"COSMOS 2251 DEB","OBJECT_ID":"1993-036HX","EPOCH":"2026-03-07T12:02:51.592992","MEAN_MOTION":15.0384381,"ECCENTRICITY":0.00049076,"INCLINATION":74.0176,"RA_OF_ASC_NODE":337.0513,"ARG_OF_PERICENTER":335.7021,"MEAN_ANOMALY":24.3935,"EPHEMERIS_TYPE":0,"CLASSIFICATION_TYPE":"U","NORAD_CAT_ID":34036,"ELEMENT_SET_NO":999,"REV_AT_EPOCH":89840,"BSTAR":0.005820671,"MEAN_MOTION_DOT":0.00081025,"MEAN_MOTION_DDOT":0}]
